IRIDIUM 112             
1 41925U 17003J   24218.89048732  .00000158  00000+0  49233-4 0  9998
2 41925  86.3984  12.5857 0002330 100.6369 259.5090 14.34216615395765
IRIDIUM 111             
1 41926U 17003K   24218.94757114  .00000133  00000+0  40507-4 0  9994
2 41926  86.3987  12.6178 0002540  92.8293 267.3193 14.34216884395755
IRIDIUM 113             
1 42803U 17039A   24218.78799471  .00000255  00000+0  83855-4 0  9990
2 42803  86.3936 246.4495 0002542  92.5089 267.6397 14.34217932373665
IRIDIUM 123             
1 42804U 17039B   24218.89924523  .00000165  00000+0  51718-4 0  9994
2 42804  86.3945 277.9123 0002408  92.3955 267.7516 14.34218235372440
IRIDIUM 120             
1 42805U 17039C   24218.78165459  .00000058  00000+0  13644-4 0  9995
2 42805  86.3926 246.3228 0002225  90.9630 269.1821 14.34217879373659
IRIDIUM 115             
1 42806U 17039D   24218.63637627  .00000515  00000+0  14695-3 0  9995
2 42806  86.4464 246.4154 0002728  91.0213 269.1301 14.43286985376104
IRIDIUM 118             
1 42807U 17039E   24218.23327421 -.00000058  00000+0 -27869-4 0  9992
2 42807  86.3944 278.1916 0002098  95.5125 264.6310 14.34217503372348
IRIDIUM 117             
1 42808U 17039F   24218.60114586  .00000025  00000+0  19801-5 0  9990
2 42808  86.3945 278.0022 0002465  91.5346 268.6133 14.34217634372427
